{
  "arrondissements": {
    "1": {"name": "1er arrondissement", "name_zh": "第1区", "lat": 48.8606, "lng": 2.3376},
    "2": {"name": "2e arrondissement",  "name_zh": "第2区", "lat": 48.8669, "lng": 2.3491},
    "3": {"name": "3e arrondissement",  "name_zh": "第3区", "lat": 48.8637, "lng": 2.3601},
    "4": {"name": "4e arrondissement",  "name_zh": "第4区", "lat": 48.8533, "lng": 2.3528},
    "5": {"name": "5e arrondissement",  "name_zh": "第5区", "lat": 48.8462, "lng": 2.3510},
    "6": {"name": "6e arrondissement",  "name_zh": "第6区", "lat": 48.8496, "lng": 2.3337},
    "7": {"name": "7e arrondissement",  "name_zh": "第7区", "lat": 48.8566, "lng": 2.3122},
    "8": {"name": "8e arrondissement",  "name_zh": "第8区", "lat": 48.8745, "lng": 2.3080},
    "9": {"name": "9e arrondissement",  "name_zh": "第9区", "lat": 48.8767, "lng": 2.3364},
    "10": {"name": "10e arrondissement", "name_zh": "第10区", "lat": 48.8762, "lng": 2.3591},
    "11": {"name": "11e arrondissement", "name_zh": "第11区", "lat": 48.8589, "lng": 2.3786},
    "12": {"name": "12e arrondissement", "name_zh": "第12区", "lat": 48.8403, "lng": 2.3886},
    "13": {"name": "13e arrondissement", "name_zh": "第13区", "lat": 48.8322, "lng": 2.3561},
    "14": {"name": "14e arrondissement", "name_zh": "第14区", "lat": 48.8322, "lng": 2.3236},
    "15": {"name": "15e arrondissement", "name_zh": "第15区", "lat": 48.8418, "lng": 2.2936},
    "16": {"name": "16e arrondissement", "name_zh": "第16区", "lat": 48.8636, "lng": 2.2742},
    "17": {"name": "17e arrondissement", "name_zh": "第17区", "lat": 48.8847, "lng": 2.3107},
    "18": {"name": "18e arrondissement", "name_zh": "第18区", "lat": 48.8927, "lng": 2.3444},
    "19": {"name": "19e arrondissement", "name_zh": "第19区", "lat": 48.8831, "lng": 2.3814},
    "20": {"name": "20e arrondissement", "name_zh": "第20区", "lat": 48.8649, "lng": 2.3989}
  },
  "landmarks": {
    "gare du nord": {"name_zh": "北站", "lat": 48.8809, "lng": 2.3553},
    "gare de l'est": {"name_zh": "东站", "lat": 48.8768, "lng": 2.3589},
    "gare de lyon": {"name_zh": "里昂站", "lat": 48.8447, "lng": 2.3735},
    "gare montparnasse": {"name_zh": "蒙帕纳斯站", "lat": 48.8411, "lng": 2.3217},
    "gare saint lazare": {"name_zh": "圣拉扎尔站", "lat": 48.8760, "lng": 2.3245},
    "gare d'austerlitz": {"name_zh": "奥斯特利兹站", "lat": 48.8435, "lng": 2.3656},
    "chatelet": {"name_zh": "夏特莱", "lat": 48.8584, "lng": 2.3474},
    "chatelet les halles": {"name_zh": "夏特莱-大堂", "lat": 48.8601, "lng": 2.3472},
    "les halles": {"name_zh": "大堂", "lat": 48.8618, "lng": 2.3447},
    "la defense": {"name_zh": "拉德芳斯", "lat": 48.8920, "lng": 2.2362},
    "puteaux": {"name_zh": "皮托", "lat": 48.8847, "lng": 2.2389},
    "boulogne": {"name_zh": "布洛涅", "lat": 48.8352, "lng": 2.2399},
    "vincennes": {"name_zh": "万塞讷", "lat": 48.8478, "lng": 2.4393},
    "saint denis": {"name_zh": "圣丹尼", "lat": 48.9360, "lng": 2.3540},
    "montmartre": {"name_zh": "蒙马特", "lat": 48.8867, "lng": 2.3431},
    "marais": {"name_zh": "玛黑区", "lat": 48.8566, "lng": 2.3574},
    "latin quarter": {"name_zh": "拉丁区", "lat": 48.8493, "lng": 2.3465},
    "quartier latin": {"name_zh": "拉丁区", "lat": 48.8493, "lng": 2.3465},
    "opera": {"name_zh": "歌剧院", "lat": 48.8719, "lng": 2.3317},
    "republique": {"name_zh": "共和广场", "lat": 48.8674, "lng": 2.3628},
    "bastille": {"name_zh": "巴士底", "lat": 48.8533, "lng": 2.3692},
    "nation": {"name_zh": "民族广场", "lat": 48.8484, "lng": 2.3955},
    "invalides": {"name_zh": "荣军院", "lat": 48.8566, "lng": 2.3127},
    "champs elysees": {"name_zh": "香榭丽舍", "lat": 48.8698, "lng": 2.3078},
    "eiffel tower": {"name_zh": "埃菲尔铁塔", "lat": 48.8584, "lng": 2.2945},
    "tour eiffel": {"name_zh": "埃菲尔铁塔", "lat": 48.8584, "lng": 2.2945},
    "louvre": {"name_zh": "卢浮宫", "lat": 48.8606, "lng": 2.3376},
    "notre dame": {"name_zh": "巴黎圣母院", "lat": 48.8530, "lng": 2.3499},
    "sacre coeur": {"name_zh": "圣心大教堂", "lat": 48.8867, "lng": 2.3431},
    "pigalle": {"name_zh": "皮加勒", "lat": 48.8840, "lng": 2.3373},
    "belleville": {"name_zh": "贝尔维尔", "lat": 48.8731, "lng": 2.3797},
    "oberkampf": {"name_zh": "奥贝尔坎普", "lat": 48.8645, "lng": 2.3729},
    "passy": {"name_zh": "帕西", "lat": 48.8570, "lng": 2.2781},
    "auteuil": {"name_zh": "奥特伊", "lat": 48.8490, "lng": 2.2718}
  }
}
